start=new Date('2022-10-06T00:00:00.000Z').valueOf();
sats=[{"PERIOD":"95.593","ELEMENT_SET_NO":"999","OBJECT_ID":"2020-074R","SEMIMAJOR_AXIS":"6925.372","ECCENTRICITY":"0.00013810","EPOCH":"2022-10-05T20:00:56.769696","MEAN_ANOMALY":"252.1886","CLASSIFICATION_TYPE":"U","INCLINATION":"53.0548","MEAN_MOTION":"15.06392303","MEAN_ELEMENT_THEORY":"SGP4","MEAN_MOTION_DDOT":"0.0000000000000","TIME_SYSTEM":"UTC","OBJECT_TYPE":"PAYLOAD","MEAN_MOTION_DOT":"-0.00001663","TLE_LINE2":"2 46754  53.0548 176.9226 0001381 107.9253 252.1886 15.06392303108144","FILE":"3593077","SITE":"AFETR","APOAPSIS":"548.194","CENTER_NAME":"EARTH","NORAD_CAT_ID":"46754","TLE_LINE1":"1 46754U 20074R   22278.83399039 -.00001663  00000-0 -92769-4 0  9999","GP_ID":"214274519","BSTAR":"-0.00009276900000","REV_AT_EPOCH":"10814","REF_FRAME":"TEME","LAUNCH_DATE":"2020-10-24","EPHEMERIS_TYPE":"0","ARG_OF_PERICENTER":"107.9253","RA_OF_ASC_NODE":"176.9226","RCS_SIZE":"LARGE","DECAY_DATE":null,"COUNTRY_CODE":"US","OBJECT_NAME":"STARLINK-1923","PERIAPSIS":"546.281"},{"GP_ID":"214274012","TLE_LINE1":"1 46755U 20074S   22278.83905110  .00006691  00000-0  46776-3 0  9993","REF_FRAME":"TEME","LAUNCH_DATE":"2020-10-24","REV_AT_EPOCH":"10807","BSTAR":"0.00046776000000","APOAPSIS":"548.317","CENTER_NAME":"EARTH","NORAD_CAT_ID":"46755","RCS_SIZE":"LARGE","DECAY_DATE":null,"COUNTRY_CODE":"US","OBJECT_NAME":"STARLINK-1924","PERIAPSIS":"546.165","RA_OF_ASC_NODE":"181.8993","ARG_OF_PERICENTER":"66.9343","EPHEMERIS_TYPE":"0","SEMIMAJOR_AXIS":"6925.376","EPOCH":"2022-10-05T20:08:14.015040","ECCENTRICITY":"0.00015540","CLASSIFICATION_TYPE":"U","MEAN_ANOMALY":"293.1809","ELEMENT_SET_NO":"999","PERIOD":"95.593","OBJECT_ID":"2020-074S","OBJECT_TYPE":"PAYLOAD","MEAN_MOTION_DOT":"0.00006691","TIME_SYSTEM":"UTC","FILE":"3593077","TLE_LINE2":"2 46755  53.0541 181.8993 0001554  66.9343 293.1809 15.06391005108070","SITE":"AFETR","MEAN_MOTION":"15.06391005","INCLINATION":"53.0541","MEAN_ELEMENT_THEORY":"SGP4","MEAN_MOTION_DDOT":"0.0000000000000"},{"MEAN_ANOMALY":"279.6344","CLASSIFICATION_TYPE":"U","ECCENTRICITY":"0.00014320","EPOCH":"2022-10-05T01:44:16.752768","SEMIMAJOR_AXIS":"6925.358","OBJECT_ID":"2020-074T","ELEMENT_SET_NO":"999","PERIOD":"95.592","SITE":"AFETR","TLE_LINE2":"2 46756  53.0538 185.7400 0001432  80.4807 279.6344 15.06396898107958","FILE":"3592692","TIME_SYSTEM":"UTC","MEAN_MOTION_DOT":"-0.00000512","OBJECT_TYPE":"PAYLOAD","MEAN_MOTION_DDOT":"0.0000000000000","MEAN_ELEMENT_THEORY":"SGP4","MEAN_MOTION":"15.06396898","INCLINATION":"53.0538","REV_AT_EPOCH":"10795","BSTAR":"-0.00001549600000","LAUNCH_DATE":"2020-10-24","REF_FRAME":"TEME","GP_ID":"214240568","TLE_LINE1":"1 46756U 20074T   22278.07241612 -.00000512  00000-0 -15496-4 0  9994","NORAD_CAT_ID":"46756","CENTER_NAME":"EARTH","APOAPSIS":"548.215","PERIAPSIS":"546.231","OBJECT_NAME":"STARLINK-1925","COUNTRY_CODE":"US","DECAY_DATE":null,"RCS_SIZE":"LARGE","ARG_OF_PERICENTER":"80.4807","EPHEMERIS_TYPE":"0","RA_OF_ASC_NODE":"185.7400"},{"MEAN_MOTION_DDOT":"0.0000000000000","MEAN_ELEMENT_THEORY":"SGP4","INCLINATION":"53.0535","MEAN_MOTION":"15.06399807","SITE":"AFETR","FILE":"3593077","TLE_LINE2":"2 46757  53.0535 181.9399 0001333  74.3105 285.8031 15.06399807108073","TIME_SYSTEM":"UTC","MEAN_MOTION_DOT":"0.00001913","OBJECT_TYPE":"PAYLOAD","OBJECT_ID":"2020-074U","ELEMENT_SET_NO":"999","PERIOD":"95.592","MEAN_ANOMALY":"285.8031","CLASSIFICATION_TYPE":"U","ECCENTRICITY":"0.00013330","EPOCH":"2022-10-05T21:11:58.684704","SEMIMAJOR_AXIS":"6925.349","ARG_OF_PERICENTER":"74.3105","EPHEMERIS_TYPE":"0","RA_OF_ASC_NODE":"181.9399","PERIAPSIS":"546.291","OBJECT_NAME":"STARLINK-1926","COUNTRY_CODE":"US","DECAY_DATE":null,"RCS_SIZE":"LARGE","NORAD_CAT_ID":"46757","CENTER_NAME":"EARTH","APOAPSIS":"548.137","BSTAR":"0.00014728000000","REV_AT_EPOCH":"10807","REF_FRAME":"TEME","LAUNCH_DATE":"2020-10-24","GP_ID":"214274268","TLE_LINE1":"1 46757U 20074U   22278.88331811  .00001913  00000-0  14728-3 0  9995"},{"SEMIMAJOR_AXIS":"6925.405","CLASSIFICATION_TYPE":"U","MEAN_ANOMALY":"289.7409","EPOCH":"2022-10-05T21:17:13.985952","ECCENTRICITY":"0.00013850","PERIOD":"95.593","ELEMENT_SET_NO":"999","OBJECT_ID":"2020-074V","TLE_LINE2":"2 46758  53.0540 181.6785 0001385  70.3730 289.7409 15.06381444108084","FILE":"3593077","MEAN_MOTION_DOT":"-0.00003100","OBJECT_TYPE":"PAYLOAD","TIME_SYSTEM":"UTC","SITE":"AFETR","MEAN_ELEMENT_THEORY":"SGP4","INCLINATION":"53.0540","MEAN_MOTION":"15.06381444","MEAN_MOTION_DDOT":"0.0000000000000","TLE_LINE1":"1 46758U 20074V   22278.88696743 -.00003100  00000-0 -18941-3 0  9997","GP_ID":"214275019","REF_FRAME":"TEME","LAUNCH_DATE":"2020-10-24","BSTAR":"-0.00018941000000","REV_AT_EPOCH":"10808","APOAPSIS":"548.230","NORAD_CAT_ID":"46758","CENTER_NAME":"EARTH","COUNTRY_CODE":"US","DECAY_DATE":null,"RCS_SIZE":"LARGE","PERIAPSIS":"546.311","OBJECT_NAME":"STARLINK-1928","RA_OF_ASC_NODE":"181.6785","ARG_OF_PERICENTER":"70.3730","EPHEMERIS_TYPE":"0"},{"DECAY_DATE":null,"RCS_SIZE":"LARGE","COUNTRY_CODE":"US","OBJECT_NAME":"STARLINK-1833","PERIAPSIS":"546.291","RA_OF_ASC_NODE":"193.5114","EPHEMERIS_TYPE":"0","ARG_OF_PERICENTER":"78.1038","GP_ID":"214247203","TLE_LINE1":"1 46759U 20074W   22278.48427501 -.00001221  00000-0 -63072-4 0  9996","LAUNCH_DATE":"2020-10-24","REF_FRAME":"TEME","REV_AT_EPOCH":"10761","BSTAR":"-0.00006307200000","APOAPSIS":"548.156","CENTER_NAME":"EARTH","NORAD_CAT_ID":"46759","MEAN_MOTION_DOT":"-0.00001221","OBJECT_TYPE":"PAYLOAD","TIME_SYSTEM":"UTC","FILE":"3592786","TLE_LINE2":"2 46759  53.0542 193.5114 0001346  78.1038 282.0102 15.06396708107612","SITE":"AFETR","MEAN_MOTION":"15.06396708","INCLINATION":"53.0542","MEAN_ELEMENT_THEORY":"SGP4","MEAN_MOTION_DDOT":"0.0000000000000","SEMIMAJOR_AXIS":"6925.359","EPOCH":"2022-10-05T11:37:21.360864","ECCENTRICITY":"0.00013460","CLASSIFICATION_TYPE":"U","MEAN_ANOMALY":"282.0102","ELEMENT_SET_NO":"999","PERIOD":"95.592","OBJECT_ID":"2020-074W"},{"RCS_SIZE":"LARGE","DECAY_DATE":null,"COUNTRY_CODE":"US","OBJECT_NAME":"STARLINK-1896","PERIAPSIS":"546.183","EPHEMERIS_TYPE":"0","ARG_OF_PERICENTER":"90.1935","RA_OF_ASC_NODE":"192.2703","GP_ID":"214273519","TLE_LINE1":"1 46760U 20074X   22278.76073266 -.00002595  00000-0 -15534-3 0  9998","REV_AT_EPOCH":"10792","BSTAR":"-0.00015534000000","REF_FRAME":"TEME","LAUNCH_DATE":"2020-10-24","APOAPSIS":"548.242","CENTER_NAME":"EARTH","NORAD_CAT_ID":"46760","TIME_SYSTEM":"UTC","MEAN_MOTION_DOT":"-0.00002595","OBJECT_TYPE":"PAYLOAD","TLE_LINE2":"2 46760  53.0559 192.2703 0001486  90.1935 269.9225 15.06400321107928","FILE":"3593077","SITE":"AFETR","MEAN_MOTION":"15.06400321","INCLINATION":"53.0559","MEAN_ELEMENT_THEORY":"SGP4","MEAN_MOTION_DDOT":"0.0000000000000","SEMIMAJOR_AXIS":"6925.348","ECCENTRICITY":"0.00014860","EPOCH":"2022-10-05T18:15:27.301824","MEAN_ANOMALY":"269.9225","CLASSIFICATION_TYPE":"U","ELEMENT_SET_NO":"999","PERIOD":"95.592","OBJECT_ID":"2020-074X"},{"LAUNCH_DATE":"2020-10-24","REF_FRAME":"TEME","REV_AT_EPOCH":"10891","BSTAR":"0.00352720000000","TLE_LINE1":"1 46763U 20074AA  22278.69493978  .00450115  00000-0  35272-2 0  9992","GP_ID":"214273769","CENTER_NAME":"EARTH","NORAD_CAT_ID":"46763","APOAPSIS":"361.218","OBJECT_NAME":"STARLINK-1902","PERIAPSIS":"358.444","RCS_SIZE":"LARGE","DECAY_DATE":null,"COUNTRY_CODE":"US","RA_OF_ASC_NODE":"121.7982","ARG_OF_PERICENTER":"53.5209","EPHEMERIS_TYPE":"0","EPOCH":"2022-10-05T16:40:42.796992","ECCENTRICITY":"0.00020590","CLASSIFICATION_TYPE":"U","MEAN_ANOMALY":"306.5996","SEMIMAJOR_AXIS":"6737.966","OBJECT_ID":"2020-074AA","ELEMENT_SET_NO":"999","PERIOD":"91.739","SITE":"AFETR","OBJECT_TYPE":"PAYLOAD","MEAN_MOTION_DOT":"0.00450115","TIME_SYSTEM":"UTC","FILE":"3593077","TLE_LINE2":"2 46763  53.0498 121.7982 0002059  53.5209 306.5996 15.69674281108913","MEAN_MOTION_DDOT":"0.0000000000000","MEAN_MOTION":"15.69674281","INCLINATION":"53.0498","MEAN_ELEMENT_THEORY":"SGP4"},{"MEAN_MOTION_DDOT":"0.0000000000000","MEAN_MOTION":"15.06395821","INCLINATION":"53.0555","MEAN_ELEMENT_THEORY":"SGP4","SITE":"AFETR","OBJECT_TYPE":"PAYLOAD","MEAN_MOTION_DOT":"-0.00000342","TIME_SYSTEM":"UTC","FILE":"3592692","TLE_LINE2":"2 46764  53.0555 193.4903 0001413  69.7436 290.3705 15.06395821107885","OBJECT_ID":"2020-074AB","ELEMENT_SET_NO":"999","PERIOD":"95.592","EPOCH":"2022-10-05T11:42:40.659840","ECCENTRICITY":"0.00014130","CLASSIFICATION_TYPE":"U","MEAN_ANOMALY":"290.3705","SEMIMAJOR_AXIS":"6925.361","RA_OF_ASC_NODE":"193.4903","EPHEMERIS_TYPE":"0","ARG_OF_PERICENTER":"69.7436","OBJECT_NAME":"STARLINK-1903","PERIAPSIS":"546.248","DECAY_DATE":null,"RCS_SIZE":"LARGE","COUNTRY_CODE":"US","CENTER_NAME":"EARTH","NORAD_CAT_ID":"46764","APOAPSIS":"548.205","REF_FRAME":"TEME","LAUNCH_DATE":"2020-10-24","BSTAR":"-0.00000407580000","REV_AT_EPOCH":"10788","TLE_LINE1":"1 46764U 20074AB  22278.48797060 -.00000342  00000-0 -40758-5 0  9992","GP_ID":"214242071"},{"NORAD_CAT_ID":"46765","CENTER_NAME":"EARTH","APOAPSIS":"548.152","REV_AT_EPOCH":"10787","BSTAR":"0.00003161800000","LAUNCH_DATE":"2020-10-24","REF_FRAME":"TEME","GP_ID":"214241821","TLE_LINE1":"1 46765U 20074AC  22278.47690853  .00000190  00000-0  31618-4 0  9997","ARG_OF_PERICENTER":"88.5956","EPHEMERIS_TYPE":"0","RA_OF_ASC_NODE":"193.5217","PERIAPSIS":"546.283","OBJECT_NAME":"STARLINK-1906","COUNTRY_CODE":"US","RCS_SIZE":"LARGE","DECAY_DATE":null,"OBJECT_ID":"2020-074AC","ELEMENT_SET_NO":"999","PERIOD":"95.592","MEAN_ANOMALY":"271.5187","CLASSIFICATION_TYPE":"U","ECCENTRICITY":"0.00013490","EPOCH":"2022-10-05T11:26:44.896992","SEMIMAJOR_AXIS":"6925.353","MEAN_MOTION_DDOT":"0.0000000000000","MEAN_ELEMENT_THEORY":"SGP4","INCLINATION":"53.0539","MEAN_MOTION":"15.06398663","SITE":"AFETR","TLE_LINE2":"2 46765  53.0539 193.5217 0001349  88.5956 271.5187 15.06398663107872","FILE":"3592692","TIME_SYSTEM":"UTC","OBJECT_TYPE":"PAYLOAD","MEAN_MOTION_DOT":"0.00000190"}];
